[{"OBJECT_NAME":"COSMOS 2581","OBJECT_ID":"2025-026A","EPOCH":"2026-03-09T19:42:28.866816","MEAN_MOTION":14.94736104,"ECCENTRICITY":0.0010574,"INCLINATION":81.9986,"RA_OF_ASC_NODE":175.8565,"ARG_OF_PERICENTER":32.7244,"MEAN_ANOMALY":327.4629,"EPHEMERIS_TYPE":0,"CLASSIFICATION_TYPE":"U","NORAD_CAT_ID":62902,"ELEMENT_SET_NO":999,"REV_AT_EPOCH":5937,"BSTAR":0.00021137,"MEAN_MOTION_DOT":2.32e-5,"MEAN_MOTION_DDOT":0},{"OBJECT_NAME":"FFLY02","OBJECT_ID":"2025-188H","EPOCH":"2026-03-09T22:44:52.619136","MEAN_MOTION":14.92826675,"ECCENTRICITY":0.00145762,"INCLINATION":97.7427,"RA_OF_ASC_NODE":145.8314,"ARG_OF_PERICENTER":94.3001,"MEAN_ANOMALY":265.9884,"EPHEMERIS_TYPE":0,"CLASSIFICATION_TYPE":"U","NORAD_CAT_ID":65322,"ELEMENT_SET_NO":999,"REV_AT_EPOCH":2910,"BSTAR":0.00025589032,"MEAN_MOTION_DOT":2.597e-5,"MEAN_MOTION_DDOT":0}]
